{
"type": "FeatureCollection",
"name": "puits",
"crs": { "type": "name", "properties": { "name": "urn:ogc:def:crs:OGC:1.3:CRS84" } },
"features": [
{ "type": "Feature", "properties": { "fid": 1, "nom": "Puit de Mez Velchennec", "description": "Grand puit situé à proximité d'une maison en ruine.", "type": "Puit surélevé", "statut": "existant", "acces": "Terrain privé, visible depuis la route", "src_c1842": false, "commentaire_st": null, "precision_geom": "exacte", "src_geom": "Solenn (terrain)", "src_p1910": false, "panoramax": "https://explore.panoramax.fr/fr/index?s=fp;s2;p90c4bd88-231f-4938-b42a-60d6e6aeb78c;c119.10/-1.60/85;m17/48.447911/-5.090304;vd;udefault", "a_voir": null }, "geometry": { "type": "Point", "coordinates": [ -5.09002659919903, 48.447787956339234 ] } },
{ "type": "Feature", "properties": { "fid": 2, "nom": "Puit de Toull Al Lann", "description": null, "type": "Puit surélevé", "statut": "existant", "acces": "Libre, bordure de route", "src_c1842": true, "commentaire_st": "Le puit n'est pas représenté sur le plan parcellaire de 1842. Cependant, plusieurs toponymes mentionnant un puit entoure l'emplacement du puit actuel : \"Liors Puns Bian\",  \"Jardin Tal ar Punç\", \"Liors ar Punç\". Ceci laisse présumer qu'un puit existait déjà à cette époque.", "precision_geom": "exacte", "src_geom": "BD ORTHO", "src_p1910": false, "panoramax": "https://explore.panoramax.fr/fr/index?s=fp;s2;p4b1254bb-d0e2-4ab5-94ba-ceedc82dd203;c216.04/-11.68/40;m17/48.448199/-5.0912;vd;udefault", "a_voir": true }, "geometry": { "type": "Point", "coordinates": [ -5.09125606986571, 48.448146480617893 ] } },
{ "type": "Feature", "properties": { "fid": 3, "nom": null, "description": null, "type": "Puit surélevé", "statut": "existant", "acces": "Terrain privé, visible depuis la route", "src_c1842": false, "commentaire_st": null, "precision_geom": "exacte", "src_geom": "Solenn (terrain)", "src_p1910": false, "panoramax": "https://explore.panoramax.fr/fr/index?s=fp;s2;p8c0bf462-5885-43f8-9eff-d5d2596e2ee6;c125.75/-6.47/30;m17/48.44847/-5.090127;vd;udefault", "a_voir": null }, "geometry": { "type": "Point", "coordinates": [ -5.090016234842708, 48.448400218145373 ] } },
{ "type": "Feature", "properties": { "fid": 4, "nom": "Puns Ledan", "description": "\"Puns Ledan\" est le nom associé à la maison.", "type": "Puit surélevé", "statut": "existant", "acces": "Terrain privé", "src_c1842": true, "commentaire_st": "Un point bleu visible sur le cadastre de 1842. Le puit est visible sur les images Panoramax (10-2023).", "precision_geom": "exacte", "src_geom": "BD ORTHO", "src_p1910": false, "panoramax": "https://explore.panoramax.fr/fr/index?s=fp;s2;p979173e6-ad47-4511-b322-5051404288a1;c234.43/-5.40/30;m17/48.456401/-5.067025;vd;udefault", "a_voir": true }, "geometry": { "type": "Point", "coordinates": [ -5.06714701957714, 48.456363425042106 ] } },
{ "type": "Feature", "properties": { "fid": 5, "nom": "Puit de Kerandraon", "description": null, "type": "Puit surélevé", "statut": "existant", "acces": "Terrain privé, visible depuis la route", "src_c1842": true, "commentaire_st": "Un point bleuté est visible à cet endroit sur le plan parcellaire de 1842. Le puit est visible sur les photographies aériennes anciennes et récentes ainsi que sur les images Panoramax (10-2023).", "precision_geom": "exacte", "src_geom": "BD ORTHO", "src_p1910": false, "panoramax": "https://explore.panoramax.fr/fr/index?s=fp;s2;pb7707cb6-3930-4aa3-b504-5e1b6b22f5f4;c55.00/-3.95/84;m17/48.442106/-5.10272;vd;udefault", "a_voir": null }, "geometry": { "type": "Point", "coordinates": [ -5.102437756475355, 48.442198605833944 ] } },
{ "type": "Feature", "properties": { "fid": 7, "nom": null, "description": null, "type": "Puit surélevé", "statut": "existant", "acces": "Terrain privé, visible depuis la route", "src_c1842": false, "commentaire_st": null, "precision_geom": "exacte", "src_geom": "BD ORTHO", "src_p1910": false, "panoramax": "https://explore.panoramax.fr/fr/index?s=fp;s2;p99b042b3-f5c6-450a-a2be-6cf62a06f01d;c246.59/-3.91/15;m17.18/48.459082/-5.119392;vd;udefault", "a_voir": null }, "geometry": { "type": "Point", "coordinates": [ -5.119661652467288, 48.459003012900887 ] } },
{ "type": "Feature", "properties": { "fid": 8, "nom": "Puit de Kerivarc'h (Sud)", "description": null, "type": "Puit surélevé", "statut": "existant", "acces": "Libre", "src_c1842": false, "commentaire_st": null, "precision_geom": "exacte", "src_geom": "BD ORTHO", "src_p1910": false, "panoramax": "https://explore.panoramax.fr/fr/index?s=fp;s2;p15ca4591-bd2b-4182-ac94-3921e29ea8f2;c3.88/-19.75/30;m17/48.453659/-5.076893;vd;udefault", "a_voir": true }, "geometry": { "type": "Point", "coordinates": [ -5.076887993961394, 48.453715462692749 ] } },
{ "type": "Feature", "properties": { "fid": 9, "nom": "Puit de Kerivarc'h (Nord)", "description": null, "type": "Puit surélevé", "statut": "existant", "acces": "Terrain privé, visible depuis la route", "src_c1842": true, "commentaire_st": "Un point bleuté (un peu effacé) est visible sur le plan parcellaire cadastral de 1842. ", "precision_geom": "exacte", "src_geom": "BD ORTHO", "src_p1910": false, "panoramax": "https://explore.panoramax.fr/fr/index?s=fp;s2;p1236ab44-7d89-45a1-ae7c-fb6446b65320;c92.12/-1.59/30;m17/48.45498/-5.078097;vd;udefault", "a_voir": true }, "geometry": { "type": "Point", "coordinates": [ -5.077939657853324, 48.454972696455776 ] } },
{ "type": "Feature", "properties": { "fid": 10, "nom": "Puit du placen de Porz Gwenn", "description": "Le puit est associé à un petit lavoir.", "type": "Puit surélevé", "statut": "existant", "acces": "Terrain privé, visible depuis la route", "src_c1842": false, "commentaire_st": null, "precision_geom": "affinée", "src_geom": "BD ORTHO", "src_p1910": false, "panoramax": "https://explore.panoramax.fr/fr/index?s=fp;s2;p2698f6d6-fcb1-471b-9dfd-9205d1e84e49;c269.46/-3.05/75;m17.71/48.452149/-5.083323;vd;udefault", "a_voir": null }, "geometry": { "type": "Point", "coordinates": [ -5.083765241788616, 48.452151799275875 ] } },
{ "type": "Feature", "properties": { "fid": 11, "nom": null, "description": "", "type": "Pompe manuelle", "statut": "existant", "acces": "Terrain privé, visible depuis la route", "src_c1842": false, "commentaire_st": null, "precision_geom": "exacte", "src_geom": "Solenn (Panoramax)", "src_p1910": false, "panoramax": "https://explore.panoramax.fr/fr/index?s=fp;s2;pdc8f9446-0f72-4917-a225-715563514cef;c282.66/-8.84/30;m17/48.448213/-5.089612;vd;udefault", "a_voir": null }, "geometry": { "type": "Point", "coordinates": [ -5.089707476585706, 48.448199954246206 ] } },
{ "type": "Feature", "properties": { "fid": 12, "nom": "Puit du Prat (Est)", "description": "Le puit est situé dans l'angle d'un jardin, au bord de la route.", "type": "Puit surélevé", "statut": "existant", "acces": "Terrain privé, visible depuis la route", "src_c1842": true, "commentaire_st": "Un cercle bleu est visible à cet endroit sur le plan parcellaire de 1842. Le puit est visible sur Panoramax (octobre 2023).", "precision_geom": "exacte", "src_geom": "Solenn (terrain)", "src_p1910": false, "panoramax": "https://explore.panoramax.fr/fr/index?s=fp;s2;p78a3d5a9-af13-43dc-a970-868a525a6fa9;c21.62/-7.11/55;m17/48.445279/-5.096912;vd;udefault", "a_voir": null }, "geometry": { "type": "Point", "coordinates": [ -5.096863457449017, 48.445365146804178 ] } },
{ "type": "Feature", "properties": { "fid": 13, "nom": "Puit de Toull Dreiz", "description": null, "type": "Puit surélevé", "statut": "existant", "acces": "Terrain privé", "src_c1842": false, "commentaire_st": null, "precision_geom": "exacte", "src_geom": "BD ORTHO", "src_p1910": false, "panoramax": "https://explore.panoramax.fr/fr/index?s=fp;s2;p70e3dcf9-2458-4c8e-bde8-11580b9bcd29;c204.36/-7.12/30;m17/48.454693/-5.07405;vd;udefault", "a_voir": null }, "geometry": { "type": "Point", "coordinates": [ -5.074085674388574, 48.454635209833093 ] } },
{ "type": "Feature", "properties": { "fid": 14, "nom": "Puit de Guernévez", "description": "Il s'agit d'un puit surélevé, la zone semble enfrichée. Il est visible depuis le sentier côtier en regardant vers le Sud.", "type": "Puit surélevé", "statut": "existant", "acces": "Terrain privé, visible depuis la route", "src_c1842": true, "commentaire_st": "Un point bleuté est visible à cet endroit sur le plan parcellaire de 1842. Le puit est visible sur les photographies aériennes anciennes et récentes. ", "precision_geom": "exacte", "src_geom": "BD ORTHO", "src_p1910": false, "panoramax": null, "a_voir": null }, "geometry": { "type": "Point", "coordinates": [ -5.100759849823722, 48.443304235846981 ] } },
{ "type": "Feature", "properties": { "fid": 15, "nom": "Puit de Korz", "description": null, "type": "Puit surélevé", "statut": "existant", "acces": "Terrain privé", "src_c1842": false, "commentaire_st": null, "precision_geom": "exacte", "src_geom": "BD ORTHO", "src_p1910": false, "panoramax": "https://explore.panoramax.fr/fr/index?s=fp;s2;pb6f41662-588d-4aca-8e73-b8ec0b18f140;c83.60/2.75/80;m17.91/48.452773/-5.092952;vd;udefault", "a_voir": null }, "geometry": { "type": "Point", "coordinates": [ -5.09236964095157, 48.452864174610013 ] } },
{ "type": "Feature", "properties": { "fid": 16, "nom": null, "description": null, "type": "Puit surélevé", "statut": "existant", "acces": "Terrain privé, visible depuis la route", "src_c1842": false, "commentaire_st": null, "precision_geom": "exacte", "src_geom": "Solenn (terrain)", "src_p1910": false, "panoramax": "https://explore.panoramax.fr/fr/index?s=fp;s2;p4688d4ef-b9ed-4c9b-bce9-4c9f334032d5;c340.80/-17.25/40;m17/48.447417/-5.091623;vd;udefault", "a_voir": null }, "geometry": { "type": "Point", "coordinates": [ -5.091633608909806, 48.447456941202262 ] } },
{ "type": "Feature", "properties": { "fid": 17, "nom": "Puit de Poull Gweguen", "description": "Puit visible depuis la route.", "type": "Puit surélevé", "statut": "existant", "acces": "Terrain privé, visible depuis la route", "src_c1842": true, "commentaire_st": "Une trace du puit semble être indiquée sur le cadastre de 1842.", "precision_geom": "exacte", "src_geom": "BD ORTHO", "src_p1910": false, "panoramax": "https://explore.panoramax.fr/fr/index?s=fp;s2;pacaf0f77-57fb-413f-87c8-b3be98f7680c;c137.27/-11.93/30;m17/48.455378/-5.123584;vd;udefault", "a_voir": null }, "geometry": { "type": "Point", "coordinates": [ -5.12353441247397, 48.455328524297556 ] } },
{ "type": "Feature", "properties": { "fid": 18, "nom": "Pompe à eau du port de Lampaul", "description": "La pompe n'est plus fonctionnelle (2026).", "type": "Autre type de pompe", "statut": "existant", "acces": "Libre", "src_c1842": false, "commentaire_st": null, "precision_geom": "exacte", "src_geom": "Solenn (Panoramax)", "src_p1910": false, "panoramax": "https://explore.panoramax.fr/fr/index?s=fp;s2;pbeedb3f8-4f15-4ae8-b3b3-579a0bfbb88e;c148.46/-14.98/30;m17.81/48.455877/-5.095611;vd;udefault", "a_voir": null }, "geometry": { "type": "Point", "coordinates": [ -5.095534759702081, 48.455848489452116 ] } },
{ "type": "Feature", "properties": { "fid": 19, "nom": null, "description": "Résurgence sur laquelle une pompe a été fixée (énergie fournie par des panneaux solaires).", "type": "Autre type de pompe", "statut": "existant", "acces": "Libre, bordure de route", "src_c1842": true, "commentaire_st": "Un cercle bleuté est visible à cet endroit sur le cadastre de 1842. La parcelle se nomme \"Franquis ar Puns\" et les parcelles voisines se nomment \"Liors ar Puns\" et \"Liors ar Punç Bras\".", "precision_geom": "exacte", "src_geom": "BD ORTHO", "src_p1910": false, "panoramax": "https://explore.panoramax.fr/fr/index?s=fp;s2;pe01849f5-415e-4437-ab9e-1ee1394f940d;c288.91/-12.10/30;m17/48.446832/-5.09035;vd;udefault", "a_voir": null }, "geometry": { "type": "Point", "coordinates": [ -5.090535819398275, 48.446894805349139 ] } },
{ "type": "Feature", "properties": { "fid": 20, "nom": null, "description": null, "type": "Puit surélevé", "statut": "existant", "acces": "Terrain privé", "src_c1842": true, "commentaire_st": "Un point bleuté est visible à cet endtoit sur le cadastre de 1842. Pas exactement localisé ", "precision_geom": "exacte", "src_geom": "Solenn (Panoramax)", "src_p1910": false, "panoramax": "https://explore.panoramax.fr/fr/index?s=fp;s2;p9ef9fb24-fcf3-4868-b22f-c74d00c2e5b2;c209.09/2.16/75;m17/48.444663/-5.097874;vd;udefault", "a_voir": null }, "geometry": { "type": "Point", "coordinates": [ -5.098012111983614, 48.444481788184326 ] } },
{ "type": "Feature", "properties": { "fid": 21, "nom": null, "description": null, "type": "Puit", "statut": "à déterminer", "acces": "Terrain privé", "src_c1842": true, "commentaire_st": "Un point bleuté est visible à cet endroit sur le cadastre de 1842. A l'été 2026, le puit n'a pas pu être localisé depuis la voie publique. Il peut avoit été détruit.", "precision_geom": "affinée", "src_geom": "Cadastre 1842", "src_p1910": false, "panoramax": null, "a_voir": null }, "geometry": { "type": "Point", "coordinates": [ -5.095833687090232, 48.444653019209738 ] } },
{ "type": "Feature", "properties": { "fid": 22, "nom": null, "description": "Le puit est situé dans un jardin. L'intérieur du puit est rectangulaire. ", "type": "Puit surélevé", "statut": "existant", "acces": "Terrain privé, visible depuis la route", "src_c1842": true, "commentaire_st": "Un point bleu est visible sur le plan parcellaire cadastral de 1842. Le puti est visible sur les images Panoramax (10-2023).", "precision_geom": "exacte", "src_geom": "BD ORTHO", "src_p1910": false, "panoramax": "https://explore.panoramax.fr/fr/index?s=fp;s2;p51d09c53-3f0d-4ac3-8db8-a9eb5ff35bb1;c77.01/-2.82/30;m17.71/48.453107/-5.081922;vd;udefault", "a_voir": null }, "geometry": { "type": "Point", "coordinates": [ -5.081793059763206, 48.453117428488262 ] } },
{ "type": "Feature", "properties": { "fid": 23, "nom": null, "description": null, "type": "Puit surélevé", "statut": "existant", "acces": "Terrain privé, visible depuis la route", "src_c1842": true, "commentaire_st": "Il s'agit d'un puit, état dégradé. Un point bleu est visible sur le cadastre de 1842.", "precision_geom": "exacte", "src_geom": "Cadastre 1842", "src_p1910": false, "panoramax": "https://explore.panoramax.fr/fr/index?s=fp;s2;p7ab0c712-3436-45e8-ab81-5a6dfeab9c8c;c341.19/-1.10/95;m17/48.452474/-5.082436;vd;udefault", "a_voir": null }, "geometry": { "type": "Point", "coordinates": [ -5.082743509895786, 48.452934004197218 ] } },
{ "type": "Feature", "properties": { "fid": 24, "nom": null, "description": null, "type": "Puit surélevé", "statut": "à déterminer", "acces": "Terrain privé", "src_c1842": true, "commentaire_st": "Point bleu visible sur le cadastre de 1842.", "precision_geom": "affinée", "src_geom": "Cadastre 1842", "src_p1910": null, "panoramax": null, "a_voir": null }, "geometry": { "type": "Point", "coordinates": [ -5.062987632557689, 48.456139968905369 ] } },
{ "type": "Feature", "properties": { "fid": 25, "nom": "Puit de Kerlann", "description": "Il s'agit d'un puit maçonné. ", "type": "Puit surélevé", "statut": "existant", "acces": "Terrain privé", "src_c1842": true, "commentaire_st": "Un point bleu est visible sur le plan parcellaire de 1842.", "precision_geom": "exacte", "src_geom": "BD ORTHO", "src_p1910": false, "panoramax": "https://explore.panoramax.fr/fr/index?s=fp;s2;p4e85dead-53b2-4cde-8f46-849bf4cb3cb3;c100.63/-5.13/80;m17.39/48.456982/-5.059413;vd;udefault", "a_voir": null }, "geometry": { "type": "Point", "coordinates": [ -5.059223883867944, 48.456962919130746 ] } },
{ "type": "Feature", "properties": { "fid": 26, "nom": null, "description": null, "type": "inconnu", "statut": "à déterminer", "acces": "Traversée de terrains privés ?", "src_c1842": true, "commentaire_st": "Point bleu visible sur le cadastre de 1842.", "precision_geom": "affinée", "src_geom": "Cadastre 1842", "src_p1910": null, "panoramax": null, "a_voir": null }, "geometry": { "type": "Point", "coordinates": [ -5.06079248920726, 48.45738645858637 ] } },
{ "type": "Feature", "properties": { "fid": 27, "nom": null, "description": null, "type": "inconnu", "statut": "à déterminer", "acces": "Traversée de terrains privés ?", "src_c1842": true, "commentaire_st": "Toponyme visible dans le cadastre de 1842", "precision_geom": "affinée", "src_geom": "Cadastre 1842", "src_p1910": null, "panoramax": null, "a_voir": null }, "geometry": { "type": "Point", "coordinates": [ -5.05752300265542, 48.464131874948315 ] } },
{ "type": "Feature", "properties": { "fid": 28, "nom": null, "description": null, "type": "inconnu", "statut": "à déterminer", "acces": "Terrain privé", "src_c1842": true, "commentaire_st": "Point bleu visisble sur le cadastre de 1842", "precision_geom": "affinée", "src_geom": "Cadastre 1842", "src_p1910": null, "panoramax": null, "a_voir": null }, "geometry": { "type": "Point", "coordinates": [ -5.08157793674946, 48.464905894053828 ] } },
{ "type": "Feature", "properties": { "fid": 29, "nom": null, "description": null, "type": "Puit surélevé", "statut": "à déterminer", "acces": "Terrain privé", "src_c1842": true, "commentaire_st": "Un point bleu visible sur le cadastre de 1842 à cet emplcalement. Le puit est visible sur Panoramax.", "precision_geom": "exacte", "src_geom": "Cadastre 1842", "src_p1910": false, "panoramax": "https://explore.panoramax.fr/fr/index?s=fp;s2;pd7369796-1fc3-4b64-9423-bb686429b2ea;c76.16/-5.93/75;m17/48.462398/-5.093934;vd;udefault", "a_voir": null }, "geometry": { "type": "Point", "coordinates": [ -5.093474587098823, 48.46249696734349 ] } },
{ "type": "Feature", "properties": { "fid": 30, "nom": null, "description": null, "type": "inconnu", "statut": "à déterminer", "acces": "Terrain privé", "src_c1842": true, "commentaire_st": "Point bleu visible sur le cadastre de 1842", "precision_geom": "affinée", "src_geom": "Cadastre 1842", "src_p1910": null, "panoramax": null, "a_voir": null }, "geometry": { "type": "Point", "coordinates": [ -5.096067955690717, 48.462059703392335 ] } },
{ "type": "Feature", "properties": { "fid": 31, "nom": "Puit de Rugain", "description": null, "type": "Puit surélevé", "statut": "existant", "acces": "Terrain privé, visible depuis la route", "src_c1842": true, "commentaire_st": "Un point bleu est visible sur le cadastre de 1842.", "precision_geom": "affinée", "src_geom": "Cadastre 1842", "src_p1910": false, "panoramax": null, "a_voir": null }, "geometry": { "type": "Point", "coordinates": [ -5.096416807540493, 48.445550451194869 ] } },
{ "type": "Feature", "properties": { "fid": 32, "nom": "Puit de Pen Ar Ruguel", "description": "Le puit comporte deux portes, une donnant à l'Est dans un jardin et l'autre donnant directement sur la route. Un petit lavoir se trouve également le même terrain.", "type": "Puit surélevé", "statut": "existant", "acces": "Terrain privé", "src_c1842": true, "commentaire_st": "Un point bleu figure à cet endroit sur le cadastre de 1842. Le puit est visible sur Panoramax.", "precision_geom": "exacte", "src_geom": "Solenn (Panoramax)", "src_p1910": false, "panoramax": "https://explore.panoramax.fr/fr/index?s=fp;s2;p70e4b7e4-2829-45ec-9e7c-752a9ef6b405;c269.30/-3.82/90;m17/48.446381/-5.096078;vd;udefault", "a_voir": null }, "geometry": { "type": "Point", "coordinates": [ -5.096516617879852, 48.44636344433615 ] } },
{ "type": "Feature", "properties": { "fid": 33, "nom": null, "description": null, "type": "Puit surélevé", "statut": "existant", "acces": "Terrain privé, visible depuis la route", "src_c1842": true, "commentaire_st": "Un point bleu visible sur le cadastre de 1842. Le puit est visible sur les images Panoramax (10-2023).", "precision_geom": "exacte", "src_geom": "BD ORTHO", "src_p1910": false, "panoramax": "https://explore.panoramax.fr/fr/index?s=fp;s2;pec9edf85-444a-4e1c-b3fd-e6f524d08673;c157.26/-2.26/80;m17.22/48.459662/-5.07358;vd;udefault", "a_voir": null }, "geometry": { "type": "Point", "coordinates": [ -5.073179795628605, 48.459157462422361 ] } },
{ "type": "Feature", "properties": { "fid": 34, "nom": null, "description": null, "type": "Puit surélevé", "statut": "existant", "acces": "Terrain privé", "src_c1842": false, "commentaire_st": "Le puit est associé à un lavoir.", "precision_geom": "exacte", "src_geom": "BD ORTHO", "src_p1910": null, "panoramax": null, "a_voir": null }, "geometry": { "type": "Point", "coordinates": [ -5.099382233917687, 48.457507375106999 ] } },
{ "type": "Feature", "properties": { "fid": 35, "nom": null, "description": null, "type": "Puit surélevé", "statut": "existant", "acces": "Terrain privé", "src_c1842": false, "commentaire_st": null, "precision_geom": "exacte", "src_geom": "BD ORTHO", "src_p1910": null, "panoramax": null, "a_voir": null }, "geometry": { "type": "Point", "coordinates": [ -5.08926882563258, 48.448495020549387 ] } },
{ "type": "Feature", "properties": { "fid": 36, "nom": null, "description": null, "type": "Puit surélevé", "statut": "existant", "acces": "Terrain privé", "src_c1842": false, "commentaire_st": null, "precision_geom": "exacte", "src_geom": "Solenn (terrain)", "src_p1910": false, "panoramax": "https://explore.panoramax.fr/fr/index?s=fp;s2;pfcd519e5-4d4d-4c87-9ae2-dbecbb695f54;c243.31/-8.73/30;m17.81/48.457931/-5.099194;vd;udefault", "a_voir": null }, "geometry": { "type": "Point", "coordinates": [ -5.099354000125204, 48.457878548414001 ] } },
{ "type": "Feature", "properties": { "fid": 37, "nom": null, "description": null, "type": "inconnu", "statut": "à déterminer", "acces": "Libre", "src_c1842": false, "commentaire_st": "Une source potentielle à cet endroit.", "precision_geom": "affinée", "src_geom": "Plan d'ensemble au 10000e de 1910", "src_p1910": null, "panoramax": null, "a_voir": null }, "geometry": { "type": "Point", "coordinates": [ -5.090323577030027, 48.456377115493403 ] } },
{ "type": "Feature", "properties": { "fid": 38, "nom": null, "description": null, "type": "Puit surélevé", "statut": "existant", "acces": "Terrain privé", "src_c1842": true, "commentaire_st": "Un point bleu se trouve à cet emplacement sur le cadastre de 1842", "precision_geom": "affinée", "src_geom": "Cadastre 1842", "src_p1910": false, "panoramax": null, "a_voir": null }, "geometry": { "type": "Point", "coordinates": [ -5.091777739661285, 48.446710081932565 ] } },
{ "type": "Feature", "properties": { "fid": 39, "nom": null, "description": null, "type": "Puit", "statut": "à déterminer", "acces": "Terrain privé", "src_c1842": false, "commentaire_st": "Point bleu sur le cadastre de 1842", "precision_geom": "affinée", "src_geom": "Cadastre 1842", "src_p1910": null, "panoramax": null, "a_voir": null }, "geometry": { "type": "Point", "coordinates": [ -5.092098694588519, 48.446658771639868 ] } },
{ "type": "Feature", "properties": { "fid": 40, "nom": null, "description": "Le puit consiste en une trappe incrustée dans le sol. Une auge en pierre est adjacente au puit.", "type": "Puit au sol", "statut": "existant", "acces": "Terrain privé", "src_c1842": false, "commentaire_st": "Le puit est visible sur les images Panoramax (10-2023).", "precision_geom": "exacte", "src_geom": "Solenn (terrain)", "src_p1910": false, "panoramax": "https://explore.panoramax.fr/fr/index?s=fp;s2;p2d982a50-3b45-46f2-a589-809bff98741c;c79.61/-6.14/30;m17/48.443338/-5.100167;vd;udefault", "a_voir": null }, "geometry": { "type": "Point", "coordinates": [ -5.100071053606307, 48.443313418111146 ] } },
{ "type": "Feature", "properties": { "fid": 41, "nom": null, "description": "Il y a pu avoir un puit surélevé à cet endroit. Aujourd'hui, seul la partie creuse du puit existe (fermée par une palette).", "type": "Puit au sol", "statut": "à déterminer", "acces": "Terrain privé, visible depuis la route", "src_c1842": true, "commentaire_st": "Un cercle bleu est visible à cet endroit sur le plan parcellaire de 1842. La parcelle s'appelle \"Liors ar punç\". Un objet persistant est visible à cet endroit sur les photos aériennes anciennes et récentes.", "precision_geom": "exacte", "src_geom": "Cadastre 1842", "src_p1910": false, "panoramax": null, "a_voir": null }, "geometry": { "type": "Point", "coordinates": [ -5.066088856892907, 48.45832800075091 ] } },
{ "type": "Feature", "properties": { "fid": 42, "nom": null, "description": null, "type": "inconnu", "statut": "à déterminer", "acces": "Traversée de terrains privés ?", "src_c1842": true, "commentaire_st": "Puit potentiel sur le cadastre ancien.", "precision_geom": "affinée", "src_geom": "Cadastre 1842", "src_p1910": null, "panoramax": null, "a_voir": null }, "geometry": { "type": "Point", "coordinates": [ -5.061364371426899, 48.462703226339173 ] } },
{ "type": "Feature", "properties": { "fid": 43, "nom": null, "description": null, "type": "Puit surélevé", "statut": "existant", "acces": "Terrain privé", "src_c1842": false, "commentaire_st": null, "precision_geom": "exacte", "src_geom": "BD ORTHO", "src_p1910": null, "panoramax": null, "a_voir": null }, "geometry": { "type": "Point", "coordinates": [ -5.125120667226378, 48.454217707380693 ] } },
{ "type": "Feature", "properties": { "fid": 44, "nom": "Puit de Keranchas", "description": null, "type": "Puit surélevé", "statut": "existant", "acces": "Terrain privé, visible depuis la route", "src_c1842": false, "commentaire_st": null, "precision_geom": "exacte", "src_geom": "Françoise (terrain)", "src_p1910": false, "panoramax": "https://explore.panoramax.fr/fr/index?s=fp;s2;p37e27526-b544-4d04-b36a-8b230bff9439;c49.83/-3.11/30;m17.25/48.468643/-5.095536;vd;udefault", "a_voir": true }, "geometry": { "type": "Point", "coordinates": [ -5.095435583583921, 48.468702351558065 ] } },
{ "type": "Feature", "properties": { "fid": 45, "nom": "Puit de Kerhéré", "description": "Le puit est adjacent à un lavoir.", "type": "Puit surélevé", "statut": "existant", "acces": "Terrain privé", "src_c1842": false, "commentaire_st": null, "precision_geom": "exacte", "src_geom": "Françoise (terrain)", "src_p1910": false, "panoramax": "https://explore.panoramax.fr/fr/index?s=fp;s2;p8dfceba4-f3ca-4026-95fe-3ce320bb4798;c143.11/-6.26/65;m17/48.467911/-5.087071;vd;udefault", "a_voir": null }, "geometry": { "type": "Point", "coordinates": [ -5.086857145349022, 48.467746858969015 ] } },
{ "type": "Feature", "properties": { "fid": 46, "nom": null, "description": "Puit fermé par une planche, situé dans un jardin privé. ", "type": "Puit surélevé", "statut": "existant", "acces": "Terrain privé", "src_c1842": false, "commentaire_st": null, "precision_geom": "exacte", "src_geom": "Françoise (terrain)", "src_p1910": null, "panoramax": null, "a_voir": null }, "geometry": { "type": "Point", "coordinates": [ -5.093642447078534, 48.462495926346172 ] } },
{ "type": "Feature", "properties": { "fid": 47, "nom": "Puit près de la chapelle de Loqueltas", "description": null, "type": "Puit surélevé", "statut": "existant", "acces": "Libre", "src_c1842": false, "commentaire_st": "Le puit semble représenté sur le plan de 1910. Le symbole utilisé pour certaines sources, fontaines et puit figure à cet endroit.", "precision_geom": "exacte", "src_geom": "Françoise (terrain)", "src_p1910": true, "panoramax": "https://explore.panoramax.fr/fr/index?s=fp;s2;p5e9dfd48-0279-4137-8893-23e6abaed7e8;c262.61/-17.16/30;m17/48.454078/-5.126716;vd;udefault", "a_voir": null }, "geometry": { "type": "Point", "coordinates": [ -5.126823999597032, 48.454065986656403 ] } },
{ "type": "Feature", "properties": { "fid": 48, "nom": "Penn Jamet #1", "description": null, "type": "Puit surélevé", "statut": "existant", "acces": "Terrain privé", "src_c1842": false, "commentaire_st": null, "precision_geom": "approximative", "src_geom": "Françoise (terrain)", "src_p1910": null, "panoramax": null, "a_voir": null }, "geometry": { "type": "Point", "coordinates": [ -5.098779476523105, 48.466092391128605 ] } },
{ "type": "Feature", "properties": { "fid": 49, "nom": "Penn Jamet #2", "description": null, "type": "Puit surélevé", "statut": "existant", "acces": "Terrain privé", "src_c1842": false, "commentaire_st": null, "precision_geom": "exacte", "src_geom": "Françoise (terrain)", "src_p1910": null, "panoramax": null, "a_voir": null }, "geometry": { "type": "Point", "coordinates": [ -5.099241036201566, 48.466238877525683 ] } },
{ "type": "Feature", "properties": { "fid": 50, "nom": "Puit de Paraden", "description": null, "type": "Puit surélevé", "statut": "existant", "acces": "Terrain privé", "src_c1842": false, "commentaire_st": null, "precision_geom": "exacte", "src_geom": "Françoise (terrain)", "src_p1910": false, "panoramax": "https://explore.panoramax.fr/fr/index?s=fp;s2;p6368da3a-77da-499e-92cf-6291db4c47bf;c238.55/1.58/30;m17.13/48.459858/-5.057102;vd;udefault", "a_voir": null }, "geometry": { "type": "Point", "coordinates": [ -5.057255210337221, 48.459768271030782 ] } },
{ "type": "Feature", "properties": { "fid": 51, "nom": "Puit de Mez ar Run (Est)", "description": "", "type": "Puit surélevé", "statut": "existant", "acces": "Terrain privé", "src_c1842": false, "commentaire_st": null, "precision_geom": "exacte", "src_geom": "Françoise (terrain)", "src_p1910": false, "panoramax": "https://explore.panoramax.fr/fr/index?s=fp;s2;p6bb9fe57-716b-414d-94dc-0f467259b020;c147.58/-25.51/30;m17.81/48.458306/-5.101246;vd;udefault", "a_voir": null }, "geometry": { "type": "Point", "coordinates": [ -5.101218678348079, 48.458266114735302 ] } },
{ "type": "Feature", "properties": { "fid": 52, "nom": "Puit du Gouzoul", "description": null, "type": "Puit surélevé", "statut": "existant", "acces": "Terrain privé", "src_c1842": false, "commentaire_st": null, "precision_geom": "exacte", "src_geom": "Françoise (terrain)", "src_p1910": false, "panoramax": "https://explore.panoramax.fr/fr/index?s=fp;s2;pe923d37d-e602-4c81-bf1b-004c4081e6cc;c104.29/-5.04/75;m17/48.457281/-5.123192;vd;udefault", "a_voir": null }, "geometry": { "type": "Point", "coordinates": [ -5.122884062611952, 48.457234786054634 ] } },
{ "type": "Feature", "properties": { "fid": 53, "nom": "Puit du Niou Huella", "description": null, "type": "Puit surélevé", "statut": "existant", "acces": "Libre", "src_c1842": false, "commentaire_st": null, "precision_geom": "exacte", "src_geom": "Françoise (terrain)", "src_p1910": false, "panoramax": "https://explore.panoramax.fr/fr/index?s=fp;s2;pe47cba35-031c-41ef-975d-1c74e18d1935;c185.88/-15.77/30;m18.19/48.460746/-5.110983;vd;udefault", "a_voir": true }, "geometry": { "type": "Point", "coordinates": [ -5.11101742289878, 48.460696246576923 ] } },
{ "type": "Feature", "properties": { "fid": 54, "nom": "Puit d'Ar Run (Est)", "description": null, "type": "Puit surélevé", "statut": "existant", "acces": "Terrain privé", "src_c1842": false, "commentaire_st": null, "precision_geom": "exacte", "src_geom": "Françoise (terrain)", "src_p1910": false, "panoramax": "https://explore.panoramax.fr/fr/index?s=fp;s2;pfa50eb34-1611-4c78-9320-0145284a95be;c197.51/-7.38/30;m17.87/48.461652/-5.057131;vd;udefault", "a_voir": null }, "geometry": { "type": "Point", "coordinates": [ -5.057155591871502, 48.461597545842309 ] } },
{ "type": "Feature", "properties": { "fid": 55, "nom": "Penn Jamet #3", "description": "Le puit se trouve sur le muret qui sépare deux parcelles.", "type": "Puit surélevé", "statut": "existant", "acces": "Terrain privé", "src_c1842": false, "commentaire_st": null, "precision_geom": "exacte", "src_geom": "Françoise (terrain)", "src_p1910": false, "panoramax": "https://explore.panoramax.fr/fr/index?s=fp;s2;p5dc1dfa7-c29a-4312-89c1-d0d716774544;c218.11/-3.17/30;m17/48.465543/-5.099677;vd;udefault", "a_voir": null }, "geometry": { "type": "Point", "coordinates": [ -5.099792270282913, 48.465479368604484 ] } },
{ "type": "Feature", "properties": { "fid": 56, "nom": null, "description": null, "type": "Puit surélevé", "statut": "existant", "acces": "Terrain privé", "src_c1842": false, "commentaire_st": null, "precision_geom": "exacte", "src_geom": "Françoise (terrain)", "src_p1910": false, "panoramax": "https://explore.panoramax.fr/fr/index?s=fp;s2;pbe73e10d-04ba-4856-823b-74d889325ae4;c181.30/-13.85/30;m17/48.455428/-5.125731;vd;udefault", "a_voir": null }, "geometry": { "type": "Point", "coordinates": [ -5.125752214403883, 48.455340704291267 ] } },
{ "type": "Feature", "properties": { "fid": 57, "nom": "Puit du Stiff", "description": "", "type": "Puit surélevé", "statut": "existant", "acces": "Terrain privé", "src_c1842": false, "commentaire_st": null, "precision_geom": "exacte", "src_geom": "Solenn (terrain)", "src_p1910": false, "panoramax": "https://explore.panoramax.fr/fr/index?s=fp;s2;pc4a3e238-a10d-4e89-b8e8-6ef08aff63ee;c201.69/-7.87/60;m17/48.47099/-5.060438;vd;udefault", "a_voir": null }, "geometry": { "type": "Point", "coordinates": [ -5.060477587943108, 48.470901220371971 ] } },
{ "type": "Feature", "properties": { "fid": 58, "nom": "Puit de Caraes - Poull Gueguen", "description": "Puit très large sans margelle situé dans une zone humide régulièrement inondée l'hiver.", "type": "Puit au sol", "statut": "existant", "acces": "Libre", "src_c1842": false, "commentaire_st": null, "precision_geom": "exacte", "src_geom": "Françoise (terrain)", "src_p1910": false, "panoramax": "https://explore.panoramax.fr/fr/index?s=fp;s2;pf2337559-af44-456f-ac2c-4589ae960ff9;c76.28/-6.04/70;m17/48.45604/-5.121188;vd;udefault", "a_voir": null }, "geometry": { "type": "Point", "coordinates": [ -5.120932820999959, 48.456085723179399 ] } },
{ "type": "Feature", "properties": { "fid": 59, "nom": "Puit du Kun", "description": "Grand puit situé dans une zone humide. ", "type": "Puit surélevé", "statut": "existant", "acces": "Libre", "src_c1842": false, "commentaire_st": "Le puit est représenté sur le plan de 1910 avec le symbole également utilisé pour certaines fontaines.", "precision_geom": "exacte", "src_geom": "Plan d'ensemble au 10000e de 1910", "src_p1910": true, "panoramax": "https://explore.panoramax.fr/fr/index?s=fp;s2;p66263e2b-ab59-435b-ab2f-55e75adb995c;c46.55/-1.93/85;m17.18/48.458984/-5.119184;vd;udefault", "a_voir": null }, "geometry": { "type": "Point", "coordinates": [ -5.11885648152752, 48.459241718994775 ] } },
{ "type": "Feature", "properties": { "fid": 60, "nom": null, "description": null, "type": "Puit surélevé", "statut": "existant", "acces": "Terrain privé", "src_c1842": false, "commentaire_st": null, "precision_geom": "exacte", "src_geom": "Françoise (terrain)", "src_p1910": false, "panoramax": "https://explore.panoramax.fr/fr/index?s=fp;s2;pe8d3f402-7a27-4e9b-9df4-2efca3958e53;c107.44/-6.63/30;m17/48.466186/-5.09719;vd;udefault", "a_voir": null }, "geometry": { "type": "Point", "coordinates": [ -5.097072181425522, 48.466164354745821 ] } },
{ "type": "Feature", "properties": { "fid": 61, "nom": null, "description": null, "type": "Puit surélevé", "statut": "existant", "acces": "Terrain privé", "src_c1842": false, "commentaire_st": null, "precision_geom": "exacte", "src_geom": "Françoise (terrain)", "src_p1910": false, "panoramax": null, "a_voir": null }, "geometry": { "type": "Point", "coordinates": [ -5.11076801322343, 48.461534004528851 ] } },
{ "type": "Feature", "properties": { "fid": 62, "nom": "Puit de Pen ar Prat", "description": null, "type": "Puit surélevé", "statut": "existant", "acces": "Terrain privé, visible depuis la route", "src_c1842": false, "commentaire_st": null, "precision_geom": "exacte", "src_geom": "Françoise (terrain)", "src_p1910": false, "panoramax": "https://explore.panoramax.fr/fr/index?s=fp;s2;pa6334936-2ad5-47ca-a214-e1e09d0b03b9;c283.57/-3.15/60;m17/48.46834/-5.084437;vd;udefault", "a_voir": null }, "geometry": { "type": "Point", "coordinates": [ -5.084727192258284, 48.46838275642574 ] } },
{ "type": "Feature", "properties": { "fid": 63, "nom": "Puit de Penn Norz", "description": null, "type": "Puit surélevé", "statut": "existant", "acces": "Terrain privé, visible depuis la route", "src_c1842": false, "commentaire_st": null, "precision_geom": "exacte", "src_geom": "Solenn (Panoramax)", "src_p1910": false, "panoramax": "https://explore.panoramax.fr/fr/index?s=fp;s2;pb853eb34-d394-4779-8d53-38ec0cb00317;c68.18/-5.25/75;m17/48.461513/-5.093755;vd;udefault", "a_voir": null }, "geometry": { "type": "Point", "coordinates": [ -5.093631933987647, 48.461543272407852 ] } },
{ "type": "Feature", "properties": { "fid": 64, "nom": "Puit de Penn Mez Agael", "description": "Le puit est associé à un petit lavoir.", "type": "Puit surélevé", "statut": "existant", "acces": "Terrain privé, visible depuis la route", "src_c1842": false, "commentaire_st": null, "precision_geom": "exacte", "src_geom": "Solenn (Panoramax)", "src_p1910": false, "panoramax": "https://explore.panoramax.fr/fr/index?s=fp;s2;pf69b4ef8-ca12-4cee-bf6c-e9634cbfefd3;c316.59/-5.31/79;m17/48.448754/-5.088532;vd;udefault", "a_voir": null }, "geometry": { "type": "Point", "coordinates": [ -5.088764710514017, 48.44889552874298 ] } },
{ "type": "Feature", "properties": { "fid": 65, "nom": "Puit de Ar Run (Ouest)", "description": null, "type": "Puit surélevé", "statut": "existant", "acces": "Traversée de terrains privés ?", "src_c1842": false, "commentaire_st": null, "precision_geom": "exacte", "src_geom": "Solenn (Panoramax)", "src_p1910": false, "panoramax": "https://explore.panoramax.fr/fr/index?s=fp;s2;p9d38b304-174f-41c8-afe1-d7dd258a8780;c121.49/-26.20/30;m17/48.461378/-5.057594;vd;udefault", "a_voir": null }, "geometry": { "type": "Point", "coordinates": [ -5.057745632869687, 48.461299908532446 ] } },
{ "type": "Feature", "properties": { "fid": 66, "nom": null, "description": null, "type": "Puit surélevé", "statut": "existant", "acces": "Terrain privé, visible depuis la route", "src_c1842": false, "commentaire_st": null, "precision_geom": "exacte", "src_geom": "Solenn (Panoramax)", "src_p1910": false, "panoramax": "https://explore.panoramax.fr/fr/index?s=fp;s2;pb191a599-46a7-4c64-adb3-acbeae0a9365;c156.56/-4.63/75;m17.24/48.460737/-5.093982;vd;udefault", "a_voir": null }, "geometry": { "type": "Point", "coordinates": [ -5.093908750887987, 48.460621043177383 ] } },
{ "type": "Feature", "properties": { "fid": 67, "nom": "Puit de Nerodin", "description": null, "type": "Puit surélevé", "statut": "existant", "acces": "Terrain privé, visible depuis la route", "src_c1842": false, "commentaire_st": null, "precision_geom": "exacte", "src_geom": "Solenn (Panoramax)", "src_p1910": false, "panoramax": "https://explore.panoramax.fr/fr/index?s=fp;s2;p02be80c9-83ed-431b-a15a-06b69ad12d2f;c258.70/-12.26/30;m17.15/48.447241/-5.092916;vd;udefault", "a_voir": null }, "geometry": { "type": "Point", "coordinates": [ -5.09299710308184, 48.447185449026584 ] } },
{ "type": "Feature", "properties": { "fid": 68, "nom": "Saint-Michel", "description": "", "type": "Citerne", "statut": "existant", "acces": "Terrain privé, visible depuis la route", "src_c1842": false, "commentaire_st": null, "precision_geom": "exacte", "src_geom": "Solenn (Panoramax)", "src_p1910": false, "panoramax": "https://explore.panoramax.fr/fr/index?s=fp;s2;pf2867229-cd26-465f-8fa9-9fc84c76e136;c146.98/-15.74/30;m17/48.46473/-5.08194;vd;udefault", "a_voir": null }, "geometry": { "type": "Point", "coordinates": [ -5.081896949340028, 48.464700716552095 ] } },
{ "type": "Feature", "properties": { "fid": 69, "nom": null, "description": "", "type": "Pompe manuelle", "statut": "existant", "acces": "Terrain privé", "src_c1842": false, "commentaire_st": null, "precision_geom": "exacte", "src_geom": "Solenn (Panoramax)", "src_p1910": false, "panoramax": "https://explore.panoramax.fr/fr/index?s=fp;s2;p1ee74372-dbd0-434e-94e7-b5228b322ab0;c183.68/-13.69/53;m20/48.4644877/-5.0798136;vd;udefault", "a_voir": null }, "geometry": { "type": "Point", "coordinates": [ -5.079797150637726, 48.464331847723251 ] } },
{ "type": "Feature", "properties": { "fid": 70, "nom": "Ty Korn", "description": null, "type": "Citerne", "statut": "existant", "acces": "Terrain privé, visible depuis la route", "src_c1842": false, "commentaire_st": "Il s'agit d'une citerne sur laquelle se trouve une trappe qui permet de puiser de l'eau.", "precision_geom": "exacte", "src_geom": "Solenn (terrain)", "src_p1910": false, "panoramax": "https://explore.panoramax.fr/fr/index?s=fp;s2;pff7616d5-97af-4963-8a6d-9c03e15c28c1;c154.82/-3.76/55;m17/48.441472/-5.103079;vd;udefault", "a_voir": null }, "geometry": { "type": "Point", "coordinates": [ -5.103034002585146, 48.441403920858804 ] } },
{ "type": "Feature", "properties": { "fid": 71, "nom": null, "description": null, "type": "Puit surélevé", "statut": "existant", "acces": "Terrain privé", "src_c1842": false, "commentaire_st": null, "precision_geom": "exacte", "src_geom": "Solenn (Panoramax)", "src_p1910": false, "panoramax": "https://explore.panoramax.fr/fr/index?s=fp;s2;p3d26ff55-e4a9-4603-8249-c31f88623383;c236.74/-8.74/60;m17/48.469408/-5.081982;vd;udefault", "a_voir": null }, "geometry": { "type": "Point", "coordinates": [ -5.082192003158882, 48.469247418634154 ] } },
{ "type": "Feature", "properties": { "fid": 72, "nom": "Puit de Parluchen", "description": "Le puit alimentait un petit lavoir/bac à linge et était utilisé à cet effet par plusieurs habitantes des environs.", "type": "Puit surélevé", "statut": "existant", "acces": "Terrain privé", "src_c1842": false, "commentaire_st": "", "precision_geom": "affinée", "src_geom": "Poull Ha Feuteun", "src_p1910": true, "panoramax": null, "a_voir": null }, "geometry": { "type": "Point", "coordinates": [ -5.118335620296599, 48.456682965306882 ] } },
{ "type": "Feature", "properties": { "fid": 73, "nom": "Puit de la station TSF", "description": null, "type": "Puit", "statut": "à déterminer", "acces": "Traversée de terrains privés ?", "src_c1842": false, "commentaire_st": "Un puit est mentionné sur les plans de la station TSF (1929). Il était situé au pignon du bâtiment le plus à l'ouest. A voir s'il existe toujours. A noter que la bâtiment le plus à l'est (aujourd'hui détruit) contenait une grande citerne et qu'un lavoir se trouvait à son pignon.", "precision_geom": "affinée", "src_geom": "Solenn (terrain)", "src_p1910": false, "panoramax": null, "a_voir": null }, "geometry": { "type": "Point", "coordinates": [ -5.08863879382873, 48.456619470164121 ] } },
{ "type": "Feature", "properties": { "fid": 74, "nom": "Kerlaouen", "description": null, "type": "Puit surélevé", "statut": "existant", "acces": "Terrain privé, visible depuis la route", "src_c1842": false, "commentaire_st": null, "precision_geom": "exacte", "src_geom": "Solenn (Panoramax)", "src_p1910": false, "panoramax": "https://explore.panoramax.fr/fr/index?s=fp;s2;p24364a92-73ef-45c8-a8dd-a356efbd0919;c342.11/-4.65/67;m17/48.461317/-5.062713;vd;udefault", "a_voir": null }, "geometry": { "type": "Point", "coordinates": [ -5.062790746137242, 48.461430974164543 ] } },
{ "type": "Feature", "properties": { "fid": 75, "nom": null, "description": null, "type": "Puit surélevé", "statut": "existant", "acces": "Terrain privé, visible depuis la route", "src_c1842": false, "commentaire_st": null, "precision_geom": "exacte", "src_geom": "Solenn (terrain)", "src_p1910": false, "panoramax": null, "a_voir": null }, "geometry": { "type": "Point", "coordinates": [ -5.091705978331682, 48.447562680628188 ] } },
{ "type": "Feature", "properties": { "fid": 76, "nom": null, "description": null, "type": "Puit surélevé", "statut": "existant", "acces": "Terrain privé, visible depuis la route", "src_c1842": false, "commentaire_st": null, "precision_geom": "affinée", "src_geom": "Solenn (terrain)", "src_p1910": false, "panoramax": null, "a_voir": null }, "geometry": { "type": "Point", "coordinates": [ -5.085670555856053, 48.451459694568399 ] } },
{ "type": "Feature", "properties": { "fid": 77, "nom": null, "description": "Puit potentiel visible dans un jardin depuis la route. A confirmer.", "type": "Puit surélevé", "statut": "existant", "acces": "Terrain privé", "src_c1842": false, "commentaire_st": null, "precision_geom": "affinée", "src_geom": "Solenn (terrain)", "src_p1910": false, "panoramax": null, "a_voir": null }, "geometry": { "type": "Point", "coordinates": [ -5.08401772106633, 48.451940353759618 ] } },
{ "type": "Feature", "properties": { "fid": 78, "nom": null, "description": "Il s'agit probablement d'un puit, seul le haut est visible depuis la route.", "type": "Puit surélevé", "statut": "existant", "acces": "Terrain privé", "src_c1842": false, "commentaire_st": "Un point clair est visible à cet endroit sur les photographies aériennes des années 1950 à 1970 notamment.", "precision_geom": "exacte", "src_geom": "Solenn (terrain)", "src_p1910": false, "panoramax": "https://explore.panoramax.fr/fr/index?s=fp;s2;pee525d44-ee14-48ea-9228-621bbf9c2137;c345.50/-0.23/75;m17/48.453265/-5.077952;vd;udefault", "a_voir": null }, "geometry": { "type": "Point", "coordinates": [ -5.07809182979519, 48.453477250855357 ] } },
{ "type": "Feature", "properties": { "fid": 79, "nom": null, "description": null, "type": "Puit surélevé", "statut": "existant", "acces": "Terrain privé", "src_c1842": false, "commentaire_st": null, "precision_geom": "exacte", "src_geom": "Solenn (terrain)", "src_p1910": false, "panoramax": "", "a_voir": null }, "geometry": { "type": "Point", "coordinates": [ -5.077769310641262, 48.454342843775997 ] } },
{ "type": "Feature", "properties": { "fid": 80, "nom": null, "description": null, "type": "Puit surélevé", "statut": "existant", "acces": "Terrain privé", "src_c1842": false, "commentaire_st": "Le puit est visible au loin depuis la route entre Porz Gwenn and Kerivarc'h. Il est visible sur les photographies aériennes anciennes des années 1960 et 1970.", "precision_geom": "exacte", "src_geom": "Solenn (terrain)", "src_p1910": false, "panoramax": "https://explore.panoramax.fr/fr/index?focus=pic&map=17/48.452839/-5.08042&pic=8f975522-7aae-4329-900a-a36847e12a8b&seq=9a4f0863-977e-43c5-84af-0b20001425bc&speed=200&theme=default&users=default&xyz=34.19/-0.39/95", "a_voir": null }, "geometry": { "type": "Point", "coordinates": [ -5.078893640128337, 48.45452561539507 ] } },
{ "type": "Feature", "properties": { "fid": 81, "nom": null, "description": null, "type": "Puit surélevé", "statut": "existant", "acces": "Terrain privé", "src_c1842": false, "commentaire_st": null, "precision_geom": null, "src_geom": "Solenn (terrain)", "src_p1910": null, "panoramax": null, "a_voir": false }, "geometry": { "type": "Point", "coordinates": [ -5.113576677399493, 48.462308825318054 ] } }
]
}
